GLOBALSTAR M035 [-]     
1 25851U 99037A   23266.63224410 -.00000044  00000+0  74290-3 0  9993
2 25851  51.9991  25.5977 0013991  39.6709  57.7007 11.04526406 26361
GLOBALSTAR M032 [-]     
1 25852U 99037B   23266.29231502 -.00000050  00000+0  54897-3 0  9994
2 25852  51.9929 255.2267 0007734 179.6827 180.3979 11.19044908 63934
GLOBALSTAR M051 [-]     
1 25853U 99037C   23267.03493248 -.00000056  00000+0  38261-3 0  9998
2 25853  51.9772 125.8625 0001659 135.7049 224.3895 11.42192107 60170
GLOBALSTAR M030 [-]     
1 25854U 99037D   23266.59681674 -.00000023  00000+0  10913-2 0  9998
2 25854  51.9906 333.2449 0004009 355.5518   4.5262 11.55091456 77043
GLOBALSTAR M048 [-]     
1 25872U 99041A   23266.58914483 -.00000070  00000+0  13451-4 0  9993
2 25872  51.9401  37.5025 0013573 166.3900 277.0904 11.33839611 53229
GLOBALSTAR M026 [-]     
1 25873U 99041B   23266.09104352 -.00000020  00000+0  16092-2 0  9993
2 25873  52.0004 151.4445 0001261 325.2243 184.6698 11.06827455 78380
GLOBALSTAR M043 [-]     
1 25874U 99041C   23266.07790476 -.00000052  00000+0  48696-3 0  9991
2 25874  51.9383 121.1330 0012929 315.2150 215.7539 11.25674873 51572
GLOBALSTAR M028 [-]     
1 25875U 99041D   23266.46281702 -.00000003  00000+0  63218-3 0  9995
2 25875  51.9615 279.6678 0063676 137.3478 223.2351 12.50541412111019
